YAOGAN-36 04C           
1 54750U 22171E   26068.78871400  .00016196  00000+0  54592-3 0  9991
2 54750  34.9797  96.6578 0006685 275.3761  84.6192 15.29852307180246
STARLINK-34208          
1 64740U 25144S   26068.53827562  .00023343  00000+0  79748-3 0  9999
2 64740  53.1575 179.2599 0001440 129.4289 230.6839 15.30211693 39728
